MOLNIYA 1-87            
1 22949U 93079A   23044.10493087 -.00000599  00000+0  00000+0 0  9991
2 22949  64.2699  64.3845 6926570 282.7880  13.3753  2.02884343 79815
MOLNIYA 1-88            
1 23420U 94081A   23043.85606038  .00000093  00000+0  00000+0 0  9991
2 23420  64.2811 142.8377 5801423 278.5365  23.2644  3.34496923121745
MOLNIYA 3-47            
1 23642U 95042A   23043.91973784 -.00001277  00000+0  00000+0 0  9993
2 23642  64.4110  45.8671 6962879 283.0287  13.0786  2.01950527201877
MOLNIYA 1-90            
1 24960U 97054A   23044.39429786  .00000066  00000+0 -25439-2 0  9994
2 24960  63.7296 108.3100 6098031 296.8723  14.3371  3.18690286215687
MOLNIYA 1-91            
1 25485U 98054A   23044.06085734  .00000154  00000+0  22925-2 0  9997
2 25485  63.1579 112.8046 6776634 291.8271  12.6613  2.36445165184073
MOLNIYA 3-50            
1 25847U 99036A   23043.73411206 -.00000293  00000+0 -47726-2 0  9992
2 25847  63.3058 298.1902 7303929 282.6413  11.1602  2.00624076172933
COSMOS 2361 [-]         
1 25590U 98076A   23044.73782897  .00000136  00000+0  13114-3 0  9997
2 25590  82.9344  27.7953 0030114 257.4276 276.3117 13.73045269209646
COSMOS 2378 [-]         
1 26818U 01023A   23045.02777253  .00000101  00000+0  91322-4 0  9990
2 26818  82.9258  45.1806 0032455 200.1130 178.7599 13.73988253 87483
COSMOS 2389 [-]         
1 27436U 02026A   23044.61253112  .00000144  00000+0  13321-3 0  9997
2 27436  82.9543 351.5458 0047681  63.5209 108.7411 13.74997291 39564
COSMOS 2398 [-]         
1 27818U 03023A   23044.50891939  .00000089  00000+0  80646-4 0  9995
2 27818  82.9507 314.0046 0032598 101.8084  71.0536 13.72231577986447
COSMOS 2407 [+]         
1 28380U 04028A   23045.07977505  .00000093  00000+0  79289-4 0  9999
2 28380  82.9571 257.5291 0040398  62.6557 102.4324 13.76137054932389
COSMOS 2414 [+]         
1 28521U 05002A   23044.29466621  .00000129  00000+0  95094-4 0  9996
2 28521  82.9464 246.1331 0039656 205.8786 154.0394 13.87684675914643
COSMOS 2429 [-]         
1 32052U 07038A   23044.45976073  .00000132  00000+0  12135-3 0  9994
2 32052  82.9810  24.7320 0039452  42.8865 317.5356 13.74984435774024
COSMOS 2454 [-]         
1 35635U 09039A   23044.78550181  .00000155  00000+0  11345-3 0  9998
2 35635  82.9535 231.6590 0020008 145.0011 226.1222 13.89713776688218
COSMOS 2463 [+]         
1 36519U 10017A   23044.32060742  .00000102  00000+0  96314-4 0  9999
2 36519  82.9572  65.8920 0034749 274.9362  95.4742 13.71494038640718
TRANSIT 16 [?]          
1 02807U 67048A   23044.20670024  .00000220  00000+0  32837-3 0  9995
2 02807  89.6606  28.1871 0018848 220.8393 149.9182 13.50360481743264
TRANSIT 17 [?]          
1 02965U 67092A   23044.42083060  .00000209  00000+0  29486-3 0  9994
2 02965  89.2298 104.7704 0047310 358.6868  12.0757 13.53072981731220
TRANSIT 18 [?]          
1 03133U 68012A   23045.06014303  .00000176  00000+0  25386-3 0  9998
2 03133  90.0079 271.7524 0073122 282.0426 248.4081 13.51201500706226
NNSS 19 [?]             
1 04507U 70067A   23044.81162883  .00000228  00000+0  30771-3 0  9998
2 04507  89.9314 237.6084 0173667  45.7095 315.8152 13.50881497583133
NNSS O-20 [?]           
1 06909U 73081A   23045.03535173  .00000349  00000+0  35229-3 0  9993
2 06909  89.8195 272.8842 0154600 293.7717  64.7298 13.70760075662388
TRANSAT [?]             
1 10457U 77106A   23045.15725965  .00000126  00000+0  18544-3 0  9995
2 10457  89.6715 114.6635 0023158 291.7965  96.5863 13.48711159228468
NOVA I [?]              
1 12458U 81044A   23044.46202125  .00000056  00000+0  11137-3 0  9998
2 12458  89.8794 104.9910 0016293  76.1657 295.2234 13.23090837 15227
NOVA 3 [?]              
1 15362U 84110A   23044.79619142  .00000105  00000+0  23140-3 0  9991
2 15362  90.0995  69.2959 0030244 298.7114 235.6873 13.22858035850684
OSCAR 30 [?]            
1 15935U 85066A   23044.36504684  .00000147  00000+0  24621-3 0  9996
2 15935  90.1757  82.1204 0170464 118.6902 254.0696 13.35793561826562
OSCAR 24 [?]            
1 15936U 85066B   23045.06831331  .00000127  00000+0  21197-3 0  9990
2 15936  90.1729  74.0284 0170975 122.5119 266.5380 13.35652229828791
POLAR BEAR [?]          
1 17070U 86088A   23044.45608472  .00000205  00000+0  20285-3 0  9990
2 17070  89.5729 226.7097 0039078 359.9123  29.0189 13.74911698817799
OSCAR 27 [?]            
1 18361U 87080A   23044.40274661  .00000180  00000+0  28755-3 0  9993
2 18361  90.3359  42.2835 0102722 304.3665  54.7798 13.44603393736692
OSCAR 29 [?]            
1 18362U 87080B   23044.29007359  .00000136  00000+0  21398-3 0  9996
2 18362  90.3372  42.6320 0104909 325.7222  45.6608 13.44186530736256
OSCAR 23 [?]            
1 19070U 88033A   23044.61145198  .00000126  00000+0  23669-3 0  9994
2 19070  90.3297 344.4403 0189815 172.6840   1.5134 13.27551831685448
OSCAR 32 [?]            
1 19071U 88033B   23044.57169550  .00000100  00000+0  18396-3 0  9991
2 19071  90.3296 344.5299 0188492 160.5468  12.8501 13.27730389685961
NOVA 11 [?]             
1 19223U 88052A   23044.87246029  .00000091  00000+0  19655-3 0  9999
2 19223  89.9727  80.2799 0029968 343.6072 189.8014 13.22770063673193
OSCAR 25 [?]            
1 19419U 88074A   23045.15259258  .00000210  00000+0  34800-3 0  9992
2 19419  90.0093  18.0429 0094998 312.6423  57.3118 13.42333648688139
OSCAR 31 [?]            
1 19420U 88074B   23044.37505174  .00000189  00000+0  31331-3 0  9999
2 19420  90.0103  18.2446 0093093 308.9565 205.6046 13.42339495687867
NOAA 1 [-]              
1 04793U 70106A   23044.40331587 -.00000031  00000+0  77997-4 0  9998
2 04793 101.5223 106.8279 0031666 212.4708 159.0490 12.54011918387792
NOAA 2 (ITOS-D) [-]     
1 06235U 72082A   23044.22624757 -.00000002  00000+0  27806-3 0  9991
2 06235 101.9818  33.1991 0003989 338.0830  32.9348 12.53157414302137
NOAA 3 [-]              
1 06920U 73086A   23044.40687104 -.00000021  00000+0  18777-3 0  9990
2 06920 102.2372  31.9010 0006389 206.5359 312.8797 12.40353016230665
NOAA 4 [-]              
1 07529U 74089A   23044.39677778 -.00000020  00000+0  16364-3 0  9993
2 07529 101.9449  30.0016 0009059   4.8537 155.1082 12.53165524206726
NOAA 5 [-]              
1 09057U 76077A   23044.35616267 -.00000017  00000+0  21784-3 0  9990
2 09057 102.1374  15.0906 0009969  54.8636 114.8691 12.37779761103540
TIROS N [-]             
1 11060U 78096A   23044.38329517  .00000496  00000+0  26067-3 0  9991
2 11060  98.6028  96.3313 0010942 164.7737 195.3770 14.18487438505762
NOAA 6 [-]              
1 11416U 79057A   23044.29552675  .00000971  00000+0  36432-3 0  9992
2 11416  98.6592  60.4702 0009234 267.6852  92.3275 14.33920127276035
NOAA 7 [-]              
1 12553U 81059A   23045.08393605  .00000182  00000+0  11231-3 0  9998
2 12553  98.9660  97.0847 0012114 144.9234 215.2740 14.17378776152243
NOAA 8 [-]              
1 13923U 83022A   23044.45712416  .00000521  00000+0  22393-3 0  9995
2 13923  98.7066  39.3010 0014276 221.9419 138.0669 14.28904359 76821
NOAA 9 [-]              
1 15427U 84123A   23044.45627182  .00000462  00000+0  25595-3 0  9995
2 15427  99.0773  26.0109 0014413 199.1992 331.5690 14.16289462970722
NOAA 10 [-]             
1 16969U 86073A   23044.46673544  .00000529  00000+0  22939-3 0  9990
2 16969  98.5933  31.4883 0011704 331.3530 195.9067 14.28289832895239
NOAA 11 [-]             
1 19531U 88089A   23044.34140025  .00000251  00000+0  14971-3 0  9996
2 19531  98.4520  25.4967 0010675 199.2533 160.8239 14.15358509774898
NOAA 12 [-]             
1 21263U 91032A   23044.50964890  .00000384  00000+0  17865-3 0  9997
2 21263  98.5272  42.7119 0013581 359.1293   0.9862 14.26062448651085
NOAA 13 [-]             
1 22739U 93050A   23044.65116164  .00000502  00000+0  29153-3 0  9992
2 22739  98.5369  17.8051 0009899  19.7466 340.4088 14.12922328521352
NOAA 14 [-]             
1 23455U 94089A   23044.53121937  .00000189  00000+0  12037-3 0  9996
2 23455  98.4333  62.9857 0009354 358.4669   1.6475 14.14240185450787
NOAA 15 [B]             
1 25338U 98030A   23045.11060610  .00000418  00000+0  19248-3 0  9999
2 25338  98.6212  76.1881 0009567 317.0272  43.0160 14.26243040287716
NOAA 16 [-]             
1 26536U 00055A   23045.15696586  .00000242  00000+0  15113-3 0  9993
2 26536  98.6032 100.3072 0010356 189.5620 170.5358 14.13387382154998
NOAA 17 [-]             
1 27453U 02032A   23044.59532905  .00000581  00000+0  26584-3 0  9990
2 27453  98.7022 352.3921 0010794 293.6121  66.3925 14.25218021 73211
NOAA 18 [B]             
1 28654U 05018A   23045.13100827  .00000432  00000+0  25602-3 0  9991
2 28654  98.9224 120.0700 0014250  12.3369 347.8149 14.12862085914194
NOAA 19 [+]             
1 33591U 09005A   23045.08940174  .00000356  00000+0  21660-3 0  9993
2 33591  99.1189  88.9501 0013288 226.5425 133.4641 14.12687035722560
SUOMI NPP [+]           
1 37849U 11061A   23045.09429050  .00000283  00000+0  15508-3 0  9997
2 37849  98.7581 345.5656 0000948  69.4705 301.4322 14.19549687585464
NOAA 20 [+]             
1 43013U 17073A   23045.05568906  .00000274  00000+0  15073-3 0  9993
2 43013  98.7419 345.0968 0001619  80.9961 279.1398 14.19558058271506
NOAA 21 (JPSS-2) [+]    
1 54234U 22150A   23044.57986173  .00000321  00000+0  17305-3 0  9991
2 54234  98.7058 344.5413 0001241  82.0560 278.0757 14.19543129 13515
ORBCOMM-X [-]           
1 21576U 91050C   23044.41191246  .00000904  00000+0  28931-3 0  9995
2 21576  98.4512 113.0613 0002790 232.8798 127.2137 14.41933128658888
ORBCOMM FM01 [-]        
1 23545U 95017A   23044.66044604  .00008409  00000+0  12828-2 0  9997
2 23545  69.9716  13.6132 0006085 207.7496 152.3327 14.74140957486361
ORBCOMM FM02 [-]        
1 23546U 95017B   23044.38300848  .00011560  00000+0  17901-2 0  9991
2 23546  69.9728  32.6433 0006691 191.1834 168.9164 14.73363688485644
